STARLINK-31877          
1 59675U 24084X   26087.27163671  .00000519  00000+0  28376-4 0  9990
2 59675  43.0028 296.9678 0001039 256.9123 103.1613 15.27581206107212
STARLINK-31884          
1 59676U 24084Y   26086.99852284  .00001922  00000+0  79330-4 0  9999
2 59676  43.0018 298.3835 0000460 227.8492 132.2321 15.27585849107177
STARLINK-32108          
1 59682U 24086A   26087.34836735  .00000035  00000+0  10797-4 0  9997
2 59682  43.0076 318.1271 0001625 279.4547  80.6121 15.27579563106912
STARLINK-32080          
1 59683U 24086B   26086.91251045  .00002510  00000+0  10073-3 0  9991
2 59683  43.0044 320.8855 0001245 286.0585  74.0129 15.27575303106867
STARLINK-32091          
1 59684U 24086C   26086.96378677  .00011112  00000+0  41254-3 0  9991
2 59684  43.0017 309.1976 0001589 267.6555  92.4115 15.27594617107000
STARLINK-32085          
1 59685U 24086D   26086.94370182  .00005747  00000+0  21824-3 0  9991
2 59685  42.9999 316.8284 0000782 305.4231  54.6547 15.27575842106907
STARLINK-32100          
1 59686U 24086E   26087.55367472 -.00000171  00000+0  33137-5 0  9997
2 59686  43.0033 295.2566 0001078 271.9776  88.0953 15.27578543107209
STARLINK-32089          
1 59687U 24086F   26087.32059300  .00001264  00000+0  55462-4 0  9998
2 59687  43.0026 314.4989 0001716 264.4960  95.5695 15.27574685106967
STARLINK-32103          
1 59688U 24086G   26086.99382898  .00000656  00000+0  33348-4 0  9995
2 59688  43.0032 305.9626 0001100 276.0011  84.0715 15.27577723107032
STARLINK-32105          
1 59689U 24086H   26087.31418094 -.00000205  00000+0  20539-5 0  9991
2 59689  43.0036 314.4501 0000809 313.0887  46.9897 15.27569953106967
STARLINK-32106          
1 59690U 24086J   26086.95223182  .00000094  00000+0  12952-4 0  9998
2 59690  43.0043 309.1056 0001473 264.1820  95.8863 15.27570071106996
STARLINK-32090          
1 59691U 24086K   26087.36636986  .00001148  00000+0  51233-4 0  9991
2 59691  43.0027 318.2982 0000981 307.5009  52.5754 15.27574058106923
STARLINK-32088          
1 59693U 24086M   26086.95995514 -.00001044  00000+0 -28428-4 0  9999
2 59693  43.0023 309.1661 0001703 265.8434  94.2223 15.27555876106993
STARLINK-32107          
1 59694U 24086N   26087.35400075 -.00000284  00000+0 -81478-6 0  9999
2 59694  43.0036 314.7467 0001113 284.4533  75.6195 15.27584412106962
STARLINK-32104          
1 59695U 24086P   26086.89548239 -.00000067  00000+0  70928-5 0  9998
2 59695  43.0052 313.7893 0001415 269.4666  90.6023 15.27577382106930
STARLINK-32094          
1 59696U 24086Q   26086.96553534  .00000856  00000+0  40621-4 0  9992
2 59696  43.0044 316.9865 0001147 263.2328  96.8393 15.27579480106901
