[{"OBJECT_NAME":"STARLINK-31877","OBJECT_ID":"2024-084X","EPOCH":"2026-03-28T06:31:09.411744","MEAN_MOTION":15.27581206,"ECCENTRICITY":0.0001039,"INCLINATION":43.0028,"RA_OF_ASC_NODE":296.9678,"ARG_OF_PERICENTER":256.9123,"MEAN_ANOMALY":103.1613,"EPHEMERIS_TYPE":0,"CLASSIFICATION_TYPE":"U","NORAD_CAT_ID":59675,"ELEMENT_SET_NO":999,"REV_AT_EPOCH":10721,"BSTAR":2.8376e-5,"MEAN_MOTION_DOT":5.19e-6,"MEAN_MOTION_DDOT":0},{"OBJECT_NAME":"STARLINK-31884","OBJECT_ID":"2024-084Y","EPOCH":"2026-03-27T23:57:52.373376","MEAN_MOTION":15.27585849,"ECCENTRICITY":4.605e-5,"INCLINATION":43.0018,"RA_OF_ASC_NODE":298.3835,"ARG_OF_PERICENTER":227.8492,"MEAN_ANOMALY":132.2321,"EPHEMERIS_TYPE":0,"CLASSIFICATION_TYPE":"U","NORAD_CAT_ID":59676,"ELEMENT_SET_NO":999,"REV_AT_EPOCH":10717,"BSTAR":7.9329888e-5,"MEAN_MOTION_DOT":1.922e-5,"MEAN_MOTION_DDOT":0},{"OBJECT_NAME":"STARLINK-32108","OBJECT_ID":"2024-086A","EPOCH":"2026-03-28T08:21:38.939040","MEAN_MOTION":15.27579563,"ECCENTRICITY":0.0001625,"INCLINATION":43.0076,"RA_OF_ASC_NODE":318.1271,"ARG_OF_PERICENTER":279.4547,"MEAN_ANOMALY":80.6121,"EPHEMERIS_TYPE":0,"CLASSIFICATION_TYPE":"U","NORAD_CAT_ID":59682,"ELEMENT_SET_NO":999,"REV_AT_EPOCH":10691,"BSTAR":1.0797e-5,"MEAN_MOTION_DOT":3.5e-7,"MEAN_MOTION_DDOT":0},{"OBJECT_NAME":"STARLINK-32080","OBJECT_ID":"2024-086B","EPOCH":"2026-03-27T21:54:00.902880","MEAN_MOTION":15.27575303,"ECCENTRICITY":0.0001245,"INCLINATION":43.0044,"RA_OF_ASC_NODE":320.8855,"ARG_OF_PERICENTER":286.0585,"MEAN_ANOMALY":74.0129,"EPHEMERIS_TYPE":0,"CLASSIFICATION_TYPE":"U","NORAD_CAT_ID":59683,"ELEMENT_SET_NO":999,"REV_AT_EPOCH":10686,"BSTAR":0.00010073,"MEAN_MOTION_DOT":2.51e-5,"MEAN_MOTION_DDOT":0},{"OBJECT_NAME":"STARLINK-32091","OBJECT_ID":"2024-086C","EPOCH":"2026-03-27T23:07:51.176928","MEAN_MOTION":15.27594617,"ECCENTRICITY":0.0001589,"INCLINATION":43.0017,"RA_OF_ASC_NODE":309.1976,"ARG_OF_PERICENTER":267.6555,"MEAN_ANOMALY":92.4115,"EPHEMERIS_TYPE":0,"CLASSIFICATION_TYPE":"U","NORAD_CAT_ID":59684,"ELEMENT_SET_NO":999,"REV_AT_EPOCH":10700,"BSTAR":0.00041254,"MEAN_MOTION_DOT":0.00011112,"MEAN_MOTION_DDOT":0},{"OBJECT_NAME":"STARLINK-32085","OBJECT_ID":"2024-086D","EPOCH":"2026-03-27T22:38:55.837248","MEAN_MOTION":15.27575842,"ECCENTRICITY":7.82e-5,"INCLINATION":42.9999,"RA_OF_ASC_NODE":316.8284,"ARG_OF_PERICENTER":305.4231,"MEAN_ANOMALY":54.6547,"EPHEMERIS_TYPE":0,"CLASSIFICATION_TYPE":"U","NORAD_CAT_ID":59685,"ELEMENT_SET_NO":999,"REV_AT_EPOCH":10690,"BSTAR":0.00021824,"MEAN_MOTION_DOT":5.747e-5,"MEAN_MOTION_DDOT":0},{"OBJECT_NAME":"STARLINK-32100","OBJECT_ID":"2024-086E","EPOCH":"2026-03-28T13:17:17.495808","MEAN_MOTION":15.27578543,"ECCENTRICITY":0.0001078,"INCLINATION":43.0033,"RA_OF_ASC_NODE":295.2566,"ARG_OF_PERICENTER":271.9776,"MEAN_ANOMALY":88.0953,"EPHEMERIS_TYPE":0,"CLASSIFICATION_TYPE":"U","NORAD_CAT_ID":59686,"ELEMENT_SET_NO":999,"REV_AT_EPOCH":10720,"BSTAR":3.3137e-6,"MEAN_MOTION_DOT":-1.71e-6,"MEAN_MOTION_DDOT":0},{"OBJECT_NAME":"STARLINK-32089","OBJECT_ID":"2024-086F","EPOCH":"2026-03-28T07:41:39.235200","MEAN_MOTION":15.27574685,"ECCENTRICITY":0.0001716,"INCLINATION":43.0026,"RA_OF_ASC_NODE":314.4989,"ARG_OF_PERICENTER":264.496,"MEAN_ANOMALY":95.5695,"EPHEMERIS_TYPE":0,"CLASSIFICATION_TYPE":"U","NORAD_CAT_ID":59687,"ELEMENT_SET_NO":999,"REV_AT_EPOCH":10696,"BSTAR":5.5462e-5,"MEAN_MOTION_DOT":1.264e-5,"MEAN_MOTION_DDOT":0},{"OBJECT_NAME":"STARLINK-32103","OBJECT_ID":"2024-086G","EPOCH":"2026-03-27T23:51:06.823872","MEAN_MOTION":15.27577723,"ECCENTRICITY":0.00011001,"INCLINATION":43.0032,"RA_OF_ASC_NODE":305.9626,"ARG_OF_PERICENTER":276.0011,"MEAN_ANOMALY":84.0715,"EPHEMERIS_TYPE":0,"CLASSIFICATION_TYPE":"U","NORAD_CAT_ID":59688,"ELEMENT_SET_NO":999,"REV_AT_EPOCH":10703,"BSTAR":3.3348335e-5,"MEAN_MOTION_DOT":6.56e-6,"MEAN_MOTION_DDOT":0},{"OBJECT_NAME":"STARLINK-32105","OBJECT_ID":"2024-086H","EPOCH":"2026-03-28T07:32:25.233216","MEAN_MOTION":15.27569953,"ECCENTRICITY":8.09e-5,"INCLINATION":43.0036,"RA_OF_ASC_NODE":314.4501,"ARG_OF_PERICENTER":313.0887,"MEAN_ANOMALY":46.9897,"EPHEMERIS_TYPE":0,"CLASSIFICATION_TYPE":"U","NORAD_CAT_ID":59689,"ELEMENT_SET_NO":999,"REV_AT_EPOCH":10696,"BSTAR":2.0539e-6,"MEAN_MOTION_DOT":-2.05e-6,"MEAN_MOTION_DDOT":0},{"OBJECT_NAME":"STARLINK-32106","OBJECT_ID":"2024-086J","EPOCH":"2026-03-27T22:51:12.829248","MEAN_MOTION":15.27570071,"ECCENTRICITY":0.0001473,"INCLINATION":43.0043,"RA_OF_ASC_NODE":309.1056,"ARG_OF_PERICENTER":264.182,"MEAN_ANOMALY":95.8863,"EPHEMERIS_TYPE":0,"CLASSIFICATION_TYPE":"U","NORAD_CAT_ID":59690,"ELEMENT_SET_NO":999,"REV_AT_EPOCH":10699,"BSTAR":1.2952e-5,"MEAN_MOTION_DOT":9.4e-7,"MEAN_MOTION_DDOT":0},{"OBJECT_NAME":"STARLINK-32090","OBJECT_ID":"2024-086K","EPOCH":"2026-03-28T08:47:34.355904","MEAN_MOTION":15.27574058,"ECCENTRICITY":9.81e-5,"INCLINATION":43.0027,"RA_OF_ASC_NODE":318.2982,"ARG_OF_PERICENTER":307.5009,"MEAN_ANOMALY":52.5754,"EPHEMERIS_TYPE":0,"CLASSIFICATION_TYPE":"U","NORAD_CAT_ID":59691,"ELEMENT_SET_NO":999,"REV_AT_EPOCH":10692,"BSTAR":5.1233e-5,"MEAN_MOTION_DOT":1.148e-5,"MEAN_MOTION_DDOT":0},{"OBJECT_NAME":"STARLINK-32088","OBJECT_ID":"2024-086M","EPOCH":"2026-03-27T23:02:20.124096","MEAN_MOTION":15.27555876,"ECCENTRICITY":0.0001703,"INCLINATION":43.0023,"RA_OF_ASC_NODE":309.1661,"ARG_OF_PERICENTER":265.8434,"MEAN_ANOMALY":94.2223,"EPHEMERIS_TYPE":0,"CLASSIFICATION_TYPE":"U","NORAD_CAT_ID":59693,"ELEMENT_SET_NO":999,"REV_AT_EPOCH":10699,"BSTAR":-2.8428e-5,"MEAN_MOTION_DOT":-1.044e-5,"MEAN_MOTION_DDOT":0},{"OBJECT_NAME":"STARLINK-32107","OBJECT_ID":"2024-086N","EPOCH":"2026-03-28T08:29:45.664800","MEAN_MOTION":15.27584412,"ECCENTRICITY":0.0001113,"INCLINATION":43.0036,"RA_OF_ASC_NODE":314.7467,"ARG_OF_PERICENTER":284.4533,"MEAN_ANOMALY":75.6195,"EPHEMERIS_TYPE":0,"CLASSIFICATION_TYPE":"U","NORAD_CAT_ID":59694,"ELEMENT_SET_NO":999,"REV_AT_EPOCH":10696,"BSTAR":-8.1478e-7,"MEAN_MOTION_DOT":-2.84e-6,"MEAN_MOTION_DDOT":0},{"OBJECT_NAME":"STARLINK-32104","OBJECT_ID":"2024-086P","EPOCH":"2026-03-27T21:29:29.678496","MEAN_MOTION":15.27577382,"ECCENTRICITY":0.00014157,"INCLINATION":43.0052,"RA_OF_ASC_NODE":313.7893,"ARG_OF_PERICENTER":269.4666,"MEAN_ANOMALY":90.6023,"EPHEMERIS_TYPE":0,"CLASSIFICATION_TYPE":"U","NORAD_CAT_ID":59695,"ELEMENT_SET_NO":999,"REV_AT_EPOCH":10693,"BSTAR":7.09281e-6,"MEAN_MOTION_DOT":-6.7e-7,"MEAN_MOTION_DDOT":0},{"OBJECT_NAME":"STARLINK-32094","OBJECT_ID":"2024-086Q","EPOCH":"2026-03-27T23:10:22.253376","MEAN_MOTION":15.2757948,"ECCENTRICITY":0.00011478,"INCLINATION":43.0044,"RA_OF_ASC_NODE":316.9865,"ARG_OF_PERICENTER":263.2328,"MEAN_ANOMALY":96.8393,"EPHEMERIS_TYPE":0,"CLASSIFICATION_TYPE":"U","NORAD_CAT_ID":59696,"ELEMENT_SET_NO":999,"REV_AT_EPOCH":10690,"BSTAR":4.0620682e-5,"MEAN_MOTION_DOT":8.56e-6,"MEAN_MOTION_DDOT":0}]
